OBJECT_NAME,OBJECT_ID,EPOCH,MEAN_MOTION,ECCENTRICITY,INCLINATION,RA_OF_ASC_NODE,ARG_OF_PERICENTER,MEAN_ANOMALY,EPHEMERIS_TYPE,CLASSIFICATION_TYPE,NORAD_CAT_ID,ELEMENT_SET_NO,REV_AT_EPOCH,BSTAR,MEAN_MOTION_DOT,MEAN_MOTION_DDOT
ONEWEB-0158,2021-025N,2026-06-11T04:28:31.340640,13.13471609,.00016011,87.8956,321.4118,92.4742,267.6571,0,U,48054,999,25284,.40121075E-3,.159E-5,0
ONEWEB-0157,2021-025P,2026-06-11T03:15:23.304960,13.13468982,.00019526,87.8954,321.4278,106.4657,253.6687,0,U,48055,999,25277,.5013314E-3,.196E-5,0
ONEWEB-0162,2021-025Q,2026-06-11T04:30:45.067968,13.13470186,.00019876,87.8952,321.4182,94.3272,265.8084,0,U,48056,999,25275,.38812275E-3,.154E-5,0
ONEWEB-0155,2021-025R,2026-06-11T04:40:41.877696,13.13464734,.00018301,87.8943,321.4126,101.1807,258.9528,0,U,48057,999,25289,.38428038E-2,.1416E-4,0
ONEWEB-0149,2021-025S,2026-06-10T23:43:18.274080,13.13469227,.0002019,87.8955,321.4574,93.8702,266.2658,0,U,48058,999,25267,.10207295E-3,.5E-6,0
ONEWEB-0148,2021-025T,2026-06-11T04:18:45.359424,13.13470294,.00024084,87.8949,321.4267,95.8750,264.2653,0,U,48059,999,25282,-.44097771E-4,-.3E-7,0
ONEWEB-0160,2021-025U,2026-06-11T04:43:08.091552,13.13470569,.00015821,87.8949,321.4194,71.5270,288.6031,0,U,48060,999,25277,.88119565E-3,.335E-5,0
ONEWEB-0163,2021-025V,2026-06-10T22:52:06.009312,13.13471238,.00018937,87.8955,321.4619,104.4737,255.6603,0,U,48061,999,25286,.10009162E-3,.49E-6,0
ONEWEB-0159,2021-025W,2026-06-11T04:08:59.923392,13.13470960,.00018432,87.8958,321.4117,103.8347,256.2987,0,U,48062,999,25281,-.47438419E-3,-.16E-5,0
ONEWEB-0164,2021-025X,2026-06-11T03:42:10.872000,13.13469555,.0001746,87.8959,321.4214,93.5743,266.5586,0,U,48063,999,25279,-.58653143E-3,-.201E-5,0
ONEWEB-0167,2021-025Y,2026-06-10T22:53:18.030624,13.13472372,.00015049,87.8947,321.4720,116.5518,243.5765,0,U,48064,999,25275,.24822986E-3,.103E-5,0
ONEWEB-0166,2021-025Z,2026-06-10T21:36:31.529952,13.13470935,.00019984,87.8959,321.4535,97.0162,263.1194,0,U,48065,999,25282,.79141357E-3,.302E-5,0
ONEWEB-0151,2021-025AA,2026-06-11T04:57:45.179424,13.13469320,.00017001,87.8948,321.4098,97.6405,262.4917,0,U,48066,999,25280,.75514114E-3,.289E-5,0
ONEWEB-0170,2021-025AB,2026-06-11T03:20:14.810784,13.13469282,.00013738,87.8949,321.4251,88.9811,271.1475,0,U,48067,999,25275,.26345909E-3,.109E-5,0
ONEWEB-0168,2021-025AC,2026-06-10T23:18:55.147968,13.13469728,.00019237,87.8958,321.4580,100.2860,259.8486,0,U,48068,999,25274,.995428E-3,.376E-5,0
ONEWEB-0173,2021-025AD,2026-06-11T04:35:49.179552,13.13470122,.00018236,87.8949,321.4163,108.0711,252.0617,0,U,48069,999,25301,.6790614E-3,.261E-5,0
ONEWEB-0171,2021-025AE,2026-06-11T03:39:44.831808,13.13469859,.0001707,87.8948,321.4319,95.7697,264.3627,0,U,48070,999,25282,-.5614599E-3,-.192E-5,0
ONEWEB-0172,2021-025AF,2026-06-11T03:10:29.589024,13.13470439,.00017111,87.8953,321.4257,100.3074,259.8248,0,U,48071,999,25371,.69554251E-3,.267E-5,0
ONEWEB-0174,2021-025AG,2026-06-11T04:33:23.527296,13.13470647,.00019741,87.8952,321.4138,96.9716,263.1638,0,U,48072,999,25304,.5938361E-3,.23E-5,0
ONEWEB-0175,2021-025AH,2026-06-11T03:27:33.920640,13.13469755,.00014639,87.8959,321.4066,97.8379,262.2916,0,U,48073,999,25269,-.13549475E-4,.8E-7,0
ONEWEB-0177,2021-025AJ,2026-06-11T03:44:37.125600,13.13470454,.00019606,87.8956,321.4227,100.6772,259.4578,0,U,48074,999,25288,-.58094701E-3,-.199E-5,0
ONEWEB-0178,2021-025AK,2026-06-11T04:11:36.993408,13.13470149,.00016449,87.8940,321.4328,103.2544,256.8768,0,U,48075,999,25293,-.98315593E-3,-.346E-5,0
ONEWEB-0108,2021-025AL,2026-06-11T03:12:56.266848,13.13469525,.00019359,87.8959,321.4186,89.3981,270.7370,0,U,48076,999,25285,.61152244E-3,.236E-5,0
ONEWEB-0169,2021-025AM,2026-06-11T03:59:14.725824,13.13470070,.00019406,87.8950,321.4206,96.5918,263.5432,0,U,48077,999,25151,-.71113909E-3,-.247E-5,0
ONEWEB-0176,2021-031A,2026-06-11T02:08:58.808256,13.14503058,.00018369,87.8959,290.9146,103.2750,256.8585,0,U,48210,999,24751,-.35592748E-3,-.119E-5,0
ONEWEB-0184,2021-031B,2026-06-11T01:30:09.124704,13.14502505,.00012894,87.8968,290.9203,121.4070,238.7186,0,U,48211,999,24748,-.17690484E-3,-.53E-6,0
ONEWEB-0179,2021-031C,2026-06-11T01:23:49.328448,14.25518650,.021862,87.8985,288.4479,277.4042,80.2357,0,U,48212,999,24817,.50805885E-4,.17E-5,0
ONEWEB-0180,2021-031D,2026-06-11T01:34:43.461984,13.14502615,.00020468,87.8967,290.9159,112.8044,247.3302,0,U,48213,999,24741,-.37701061E-3,-.127E-5,0
ONEWEB-0218,2021-031E,2026-06-11T02:06:41.484096,13.14502158,.00015816,87.8967,290.9106,128.6487,231.4784,0,U,48214,999,24757,-.40533562E-3,-.137E-5,0
ONEWEB-0209,2021-031F,2026-06-11T01:50:41.194752,13.14502651,.00020696,87.8957,290.9303,105.1040,255.0319,0,U,48215,999,24757,-.12170677E-2,-.438E-5,0
