1 48054U 21025N 26162.18647385 .00000159 00000+0 40121-3 0 9995 
2 48054 87.8956 321.4118 0001601 92.4742 267.6571 13.13471609252842 
1 48055U 21025P 26162.13568640 .00000196 00000+0 50133-3 0 9992 
2 48055 87.8954 321.4278 0001952 106.4657 253.6687 13.13468982252773 
1 48056U 21025Q 26162.18802162 .00000154 00000+0 38812-3 0 9992 
2 48056 87.8952 321.4182 0001987 94.3272 265.8084 13.13470186252755 
1 48057U 21025R 26162.19492914 .00001416 00000+0 38428-2 0 9998 
2 48057 87.8943 321.4126 0001830 101.1807 258.9528 13.13464734252895 
1 48058U 21025S 26161.98840595 .00000050 00000+0 10207-3 0 9996 
2 48058 87.8955 321.4574 0002019 93.8702 266.2658 13.13469227252671 
1 48059U 21025T 26162.17969166 -.00000003 00000+0 -44098-4 0 9991 
2 48059 87.8949 321.4267 0002408 95.8750 264.2653 13.13470294252827 
1 48060U 21025U 26162.19662143 .00000335 00000+0 88120-3 0 9999 
2 48060 87.8949 321.4194 0001582 71.5270 288.6031 13.13470569252777 
1 48061U 21025V 26161.95284733 .00000049 00000+0 10009-3 0 9991 
2 48061 87.8955 321.4619 0001893 104.4737 255.6603 13.13471238252869 
1 48062U 21025W 26162.17291578 -.00000160 00000+0 -47438-3 0 9994 
2 48062 87.8958 321.4117 0001843 103.8347 256.2987 13.13470960252819 
1 48063U 21025X 26162.15429250 -.00000201 00000+0 -58653-3 0 9990 
2 48063 87.8959 321.4214 0001746 93.5743 266.5586 13.13469555252790 
1 48064U 21025Y 26161.95368091 .00000103 00000+0 24823-3 0 9994 
2 48064 87.8947 321.4720 0001504 116.5518 243.5765 13.13472372252759 
1 48065U 21025Z 26161.90036493 .00000302 00000+0 79141-3 0 9992 
2 48065 87.8959 321.4535 0001998 97.0162 263.1194 13.13470935252827 
1 48066U 21025AA 26162.20677291 .00000289 00000+0 75514-3 0 9998 
2 48066 87.8948 321.4098 0001700 97.6405 262.4917 13.13469320252806 
1 48067U 21025AB 26162.13906031 .00000109 00000+0 26346-3 0 9998 
2 48067 87.8949 321.4251 0001373 88.9811 271.1475 13.13469282252756 
1 48068U 21025AC 26161.97147162 .00000376 00000+0 99543-3 0 9997 
2 48068 87.8958 321.4580 0001923 100.2860 259.8486 13.13469728252744 
1 48069U 21025AD 26162.19154143 .00000261 00000+0 67906-3 0 9991 
2 48069 87.8949 321.4163 0001823 108.0711 252.0617 13.13470122253014 
1 48070U 21025AE 26162.15260222 -.00000192 00000+0 -56146-3 0 9994 
2 48070 87.8948 321.4319 0001707 95.7697 264.3627 13.13469859252824 
1 48071U 21025AF 26162.13228691 .00000267 00000+0 69554-3 0 9995 
2 48071 87.8953 321.4257 0001711 100.3074 259.8248 13.13470439253712 
1 48072U 21025AG 26162.18985564 .00000230 00000+0 59384-3 0 9990 
2 48072 87.8952 321.4138 0001974 96.9716 263.1638 13.13470647253042 
1 48073U 21025AH 26162.14414260 .00000008 00000+0 -13549-4 0 9995 
2 48073 87.8959 321.4066 0001463 97.8379 262.2916 13.13469755252695 
1 48074U 21025AJ 26162.15598525 -.00000199 00000+0 -58095-3 0 9990 
2 48074 87.8956 321.4227 0001960 100.6772 259.4578 13.13470454252885 
1 48075U 21025AK 26162.17473372 -.00000346 00000+0 -98316-3 0 9999 
2 48075 87.8940 321.4328 0001644 103.2544 256.8768 13.13470149252935 
1 48076U 21025AL 26162.13398457 .00000236 00000+0 61152-3 0 9990 
2 48076 87.8959 321.4186 0001935 89.3981 270.7370 13.13469525252851 
1 48077U 21025AM 26162.16614266 -.00000247 00000+0 -71114-3 0 9996 
2 48077 87.8950 321.4206 0001940 96.5918 263.5432 13.13470070251510 
1 48210U 21031A 26162.08956954 -.00000119 00000+0 -35593-3 0 9995 
2 48210 87.8959 290.9146 0001836 103.2750 256.8585 13.14503058247518 
1 48211U 21031B 26162.06260561 -.00000053 00000+0 -17690-3 0 9991 
2 48211 87.8968 290.9203 0001289 121.4070 238.7186 13.14502505247480 
1 48212U 21031C 26162.05820982 .00000170 00000+0 50806-4 0 9995 
2 48212 87.8985 288.4479 0218620 277.4042 80.2357 14.25518650248175 
1 48213U 21031D 26162.06578081 -.00000127 00000+0 -37701-3 0 9999 
2 48213 87.8967 290.9159 0002046 112.8044 247.3302 13.14502615247419 
1 48214U 21031E 26162.08798014 -.00000137 00000+0 -40534-3 0 9991 
2 48214 87.8967 290.9106 0001581 128.6487 231.4784 13.14502158247578 
1 48215U 21031F 26162.07686568 -.00000438 00000+0 -12171-2 0 9990 
2 48215 87.8957 290.9303 0002069 105.1040 255.0319 13.14502651247578 
